APRIZESAT 2             
1 28366U 04025A   22240.15132206  .00000066  00000+0  34205-4 0  9995
2 28366  98.1556 105.5953 0108607 119.1794 242.0311 14.36836604952115
SAUDICOMSAT 1           
1 28369U 04025D   22240.47453526  .00000164  00000+0  51264-4 0  9997
2 28369  98.4465 202.5831 0032568 316.1211  43.7398 14.52836214962362
SAUDICOMSAT 2           
1 28370U 04025E   22240.48905754  .00000114  00000+0  42766-4 0  9997
2 28370  98.5383 201.7874 0058375 142.5050 218.0236 14.47728613959077
APRIZESAT 1             
1 28372U 04025G   22239.89425967  .00000106  00000+0  39303-4 0  9999
2 28372  98.4992 201.3534 0047284  58.9141 301.6680 14.49829254960452
NANOSAT-1               
1 28493U 04049B   22240.19190536  .00000327  00000+0  57482-4 0  9998
2 28493  98.1155 341.0432 0005714  70.9044 289.2782 14.74071686950449
SAUDICOMSAT 7           
1 31119U 07012C   22239.79901525  .00000160  00000+0  40890-4 0  9992
2 31119  98.1877 185.0019 0058654 226.8405 132.7886 14.62143169819185
SAUDICOMSAT 6           
1 31121U 07012E   22240.04225001  .00000228  00000+0  57158-4 0  9993
2 31121  98.2284 180.5262 0075592 330.9755  28.7251 14.58926062817450
SAUDICOMSAT 5           
1 31124U 07012H   22239.57682764  .00000166  00000+0  40598-4 0  9996
2 31124  98.1569 186.3090 0051414 172.6443 187.5525 14.63868613819995
SAUDICOMSAT 3           
1 31125U 07012J   22240.09331935  .00000262  00000+0  56544-4 0  9992
2 31125  98.1227 188.2369 0044178 117.4217 243.1490 14.65696676821074
SAUDICOMSAT 4           
1 31127U 07012L   22239.53356603  .00000168  00000+0  43611-4 0  9996
2 31127  98.2104 183.1280 0066289 277.5715  81.7959 14.60655381818250
APRIZESAT 4             
1 35684U 09041D   22240.52376489  .00000284  00000+0  44806-4 0  9993
2 35684  98.3107 256.6385 0047979 119.8222 240.7771 14.79707310705775
APRIZESAT 3             
1 35686U 09041F   22240.18436194  .00000358  00000+0  43943-4 0  9990
2 35686  98.1060 328.4546 0070961 312.7123  46.8131 14.88018334709322
AISSAT 1                
1 36797U 10035C   22240.44511001  .00000645  00000+0  78237-4 0  9992
2 36797  98.2401  67.0463 0009784 300.2939  59.7307 14.87230652657274
S-NET D                 
1 43186U 18014G   22240.30167927  .00000886  00000+0  79592-4 0  9998
2 43186  97.6518 144.6538 0012596  60.6805 299.5674 14.98114183249679
S-NET B                 
1 43187U 18014H   22240.30190489  .00000848  00000+0  76436-4 0  9990
2 43187  97.6514 144.6023 0012572  60.5969 299.6507 14.98112023249676
S-NET A                 
1 43188U 18014J   22239.30032394  .00000850  00000+0  76577-4 0  9998
2 43188  97.6520 143.6878 0012634  63.9627 296.2894 14.98109107249523
S-NET C                 
1 43189U 18014K   22240.16944901  .00000758  00000+0  68813-4 0  9992
2 43189  97.6513 144.4602 0012543  60.9093 299.3384 14.98108266248200
SALSAT                  
1 46495U 20068K   22239.78680719  .00001855  00000+0  13567-3 0  9991
2 46495  97.7321 181.1311 0017358  40.0545 320.1957 15.04752272104914
